start=new Date('2023-04-07T00:00:00.000Z').valueOf();
sats=[{"TIME_SYSTEM":"UTC","OBJECT_ID":"2021-017AM","REV_AT_EPOCH":"11678","PERIAPSIS":"546.578","OBJECT_TYPE":"PAYLOAD","GP_ID":"229642977","ELEMENT_SET_NO":"999","ARG_OF_PERICENTER":"105.7437","CLASSIFICATION_TYPE":"U","NORAD_CAT_ID":"47757","BSTAR":"0.00110580000000","COUNTRY_CODE":"US","RA_OF_ASC_NODE":"325.0035","OBJECT_NAME":"STARLINK-2175","SITE":"AFETR","APOAPSIS":"548.083","INCLINATION":"53.0537","MEAN_MOTION_DOT":"0.00016211","SEMIMAJOR_AXIS":"6925.466","FILE":"3882049","MEAN_MOTION":"15.06361837","TLE_LINE1":"1 47757U 21017AM  23096.92472597  .00016211  00000-0  11058-2 0  9994","PERIOD":"95.595","DECAY_DATE":null,"MEAN_ANOMALY":"254.3672","CENTER_NAME":"EARTH","MEAN_ELEMENT_THEORY":"SGP4","REF_FRAME":"TEME","EPHEMERIS_TYPE":"0","MEAN_MOTION_DDOT":"0.0000000000000","ECCENTRICITY":"0.00010870","TLE_LINE2":"2 47757  53.0537 325.0035 0001087 105.7437 254.3672 15.06361837116788","RCS_SIZE":"LARGE","EPOCH":"2023-04-06T22:11:36.323808","LAUNCH_DATE":"2021-03-04"},{"REV_AT_EPOCH":"11668","TIME_SYSTEM":"UTC","OBJECT_ID":"2021-017AQ","GP_ID":"229643205","ELEMENT_SET_NO":"999","OBJECT_TYPE":"PAYLOAD","PERIAPSIS":"546.579","BSTAR":"0.00115050000000","CLASSIFICATION_TYPE":"U","NORAD_CAT_ID":"47760","ARG_OF_PERICENTER":"89.5413","MEAN_MOTION_DOT":"0.00016885","SEMIMAJOR_AXIS":"6925.427","APOAPSIS":"548.004","INCLINATION":"53.0540","OBJECT_NAME":"STARLINK-2178","SITE":"AFETR","COUNTRY_CODE":"US","RA_OF_ASC_NODE":"334.8561","TLE_LINE1":"1 47760U 21017AQ  23096.95700106  .00016885  00000-0  11505-2 0  9995","MEAN_MOTION":"15.06374556","FILE":"3882049","REF_FRAME":"TEME","MEAN_ELEMENT_THEORY":"SGP4","MEAN_ANOMALY":"270.5694","CENTER_NAME":"EARTH","PERIOD":"95.594","DECAY_DATE":null,"RCS_SIZE":"LARGE","ECCENTRICITY":"0.00010290","TLE_LINE2":"2 47760  53.0540 334.8561 0001029  89.5413 270.5694 15.06374556116682","EPHEMERIS_TYPE":"0","MEAN_MOTION_DDOT":"0.0000000000000","LAUNCH_DATE":"2021-03-04","EPOCH":"2023-04-06T22:58:04.891584"},{"LAUNCH_DATE":"2021-03-04","EPOCH":"2023-04-06T22:06:20.081664","RCS_SIZE":"LARGE","EPHEMERIS_TYPE":"0","MEAN_MOTION_DDOT":"0.0000000000000","TLE_LINE2":"2 47761  53.0540 325.0183 0000935  99.7730 260.3365 15.06385082116795","ECCENTRICITY":"0.00009350","CENTER_NAME":"EARTH","MEAN_ANOMALY":"260.3365","MEAN_ELEMENT_THEORY":"SGP4","REF_FRAME":"TEME","PERIOD":"95.593","DECAY_DATE":null,"TLE_LINE1":"1 47761U 21017AR  23096.92106576  .00016139  00000-0  11003-2 0  9999","FILE":"3882049","MEAN_MOTION":"15.06385082","APOAPSIS":"547.907","INCLINATION":"53.0540","MEAN_MOTION_DOT":"0.00016139","SEMIMAJOR_AXIS":"6925.394","RA_OF_ASC_NODE":"325.0183","COUNTRY_CODE":"US","OBJECT_NAME":"STARLINK-2179","SITE":"AFETR","CLASSIFICATION_TYPE":"U","NORAD_CAT_ID":"47761","BSTAR":"0.00110030000000","ARG_OF_PERICENTER":"99.7730","OBJECT_TYPE":"PAYLOAD","GP_ID":"229641489","ELEMENT_SET_NO":"999","PERIAPSIS":"546.612","REV_AT_EPOCH":"11679","OBJECT_ID":"2021-017AR","TIME_SYSTEM":"UTC"},{"CLASSIFICATION_TYPE":"U","NORAD_CAT_ID":"47762","BSTAR":"0.00172000000000","ARG_OF_PERICENTER":"121.7766","APOAPSIS":"547.728","INCLINATION":"53.0549","MEAN_MOTION_DOT":"0.00025426","SEMIMAJOR_AXIS":"6925.369","COUNTRY_CODE":"US","RA_OF_ASC_NODE":"339.9102","SITE":"AFETR","OBJECT_NAME":"STARLINK-2180","REV_AT_EPOCH":"11660","TIME_SYSTEM":"UTC","OBJECT_ID":"2021-017AS","OBJECT_TYPE":"PAYLOAD","GP_ID":"229641739","ELEMENT_SET_NO":"999","PERIAPSIS":"546.739","RCS_SIZE":"LARGE","MEAN_MOTION_DDOT":"0.0000000000000","EPHEMERIS_TYPE":"0","TLE_LINE2":"2 47762  53.0549 339.9102 0000714 121.7766 238.3293 15.06393481116607","ECCENTRICITY":"0.00007140","LAUNCH_DATE":"2021-03-04","EPOCH":"2023-04-06T22:44:08.846304","TLE_LINE1":"1 47762U 21017AS  23096.94732461  .00025426  00000-0  17200-2 0  9994","FILE":"3882049","MEAN_MOTION":"15.06393481","MEAN_ELEMENT_THEORY":"SGP4","MEAN_ANOMALY":"238.3293","CENTER_NAME":"EARTH","REF_FRAME":"TEME","PERIOD":"95.593","DECAY_DATE":null},{"ARG_OF_PERICENTER":"66.9009","BSTAR":"0.00142090000000","CLASSIFICATION_TYPE":"U","NORAD_CAT_ID":"47763","OBJECT_NAME":"STARLINK-2181","SITE":"AFETR","COUNTRY_CODE":"US","RA_OF_ASC_NODE":"330.1282","SEMIMAJOR_AXIS":"6925.330","MEAN_MOTION_DOT":"0.00020949","INCLINATION":"53.0547","APOAPSIS":"548.300","OBJECT_ID":"2021-017AT","TIME_SYSTEM":"UTC","REV_AT_EPOCH":"11608","PERIAPSIS":"546.091","ELEMENT_SET_NO":"999","GP_ID":"229615962","OBJECT_TYPE":"PAYLOAD","ECCENTRICITY":"0.00015950","TLE_LINE2":"2 47763  53.0547 330.1282 0001595  66.9009 293.2148 15.06405920116089","MEAN_MOTION_DDOT":"0.0000000000000","EPHEMERIS_TYPE":"0","RCS_SIZE":"LARGE","EPOCH":"2023-04-06T21:31:10.960032","LAUNCH_DATE":"2021-03-04","MEAN_MOTION":"15.06405920","FILE":"3881825","TLE_LINE1":"1 47763U 21017AT  23096.89665463  .00020949  00000-0  14209-2 0  9997","DECAY_DATE":null,"PERIOD":"95.592","REF_FRAME":"TEME","MEAN_ELEMENT_THEORY":"SGP4","MEAN_ANOMALY":"293.2148","CENTER_NAME":"EARTH"},{"COUNTRY_CODE":"US","RA_OF_ASC_NODE":"339.9607","OBJECT_NAME":"STARLINK-2182","SITE":"AFETR","INCLINATION":"53.0540","APOAPSIS":"548.104","SEMIMAJOR_AXIS":"6925.354","MEAN_MOTION_DOT":"0.00002132","ARG_OF_PERICENTER":"116.7714","NORAD_CAT_ID":"47764","CLASSIFICATION_TYPE":"U","BSTAR":"0.00016200000000","PERIAPSIS":"546.334","OBJECT_TYPE":"PAYLOAD","ELEMENT_SET_NO":"999","GP_ID":"229642717","TIME_SYSTEM":"UTC","OBJECT_ID":"2021-017AU","REV_AT_EPOCH":"11663","EPOCH":"2023-04-06T22:22:55.571232","LAUNCH_DATE":"2021-03-04","MEAN_MOTION_DDOT":"0.0000000000000","EPHEMERIS_TYPE":"0","TLE_LINE2":"2 47764  53.0540 339.9607 0001278 116.7714 243.3406 15.06398203116635","ECCENTRICITY":"0.00012780","RCS_SIZE":"LARGE","DECAY_DATE":null,"PERIOD":"95.592","MEAN_ANOMALY":"243.3406","MEAN_ELEMENT_THEORY":"SGP4","CENTER_NAME":"EARTH","REF_FRAME":"TEME","FILE":"3882049","MEAN_MOTION":"15.06398203","TLE_LINE1":"1 47764U 21017AU  23096.93258763  .00002132  00000-0  16200-3 0  9992"},{"TLE_LINE1":"1 47766U 21017AW  23096.95008046  .00024722  00000-0  16725-2 0  9993","MEAN_MOTION":"15.06405509","FILE":"3882049","REF_FRAME":"TEME","MEAN_ELEMENT_THEORY":"SGP4","MEAN_ANOMALY":"253.2271","CENTER_NAME":"EARTH","PERIOD":"95.592","DECAY_DATE":null,"RCS_SIZE":"LARGE","ECCENTRICITY":"0.00005860","TLE_LINE2":"2 47766  53.0546 339.8785 0000586 106.8782 253.2271 15.06405509116576","EPHEMERIS_TYPE":"0","MEAN_MOTION_DDOT":"0.0000000000000","LAUNCH_DATE":"2021-03-04","EPOCH":"2023-04-06T22:48:06.951744","REV_AT_EPOCH":"11657","TIME_SYSTEM":"UTC","OBJECT_ID":"2021-017AW","GP_ID":"229641978","ELEMENT_SET_NO":"999","OBJECT_TYPE":"PAYLOAD","PERIAPSIS":"546.791","BSTAR":"0.00167250000000","CLASSIFICATION_TYPE":"U","NORAD_CAT_ID":"47766","ARG_OF_PERICENTER":"106.8782","MEAN_MOTION_DOT":"0.00024722","SEMIMAJOR_AXIS":"6925.332","APOAPSIS":"547.602","INCLINATION":"53.0546","SITE":"AFETR","OBJECT_NAME":"STARLINK-2184","COUNTRY_CODE":"US","RA_OF_ASC_NODE":"339.8785"},{"EPOCH":"2023-04-06T21:50:24.905472","LAUNCH_DATE":"2021-03-04","MEAN_MOTION_DDOT":"0.0000000000000","EPHEMERIS_TYPE":"0","ECCENTRICITY":"0.00009280","TLE_LINE2":"2 47767  53.0532 325.0685 0000928  76.5996 283.5096 15.06389857116161","RCS_SIZE":"LARGE","PERIOD":"95.593","DECAY_DATE":null,"MEAN_ANOMALY":"283.5096","MEAN_ELEMENT_THEORY":"SGP4","CENTER_NAME":"EARTH","REF_FRAME":"TEME","FILE":"3881888","MEAN_MOTION":"15.06389857","TLE_LINE1":"1 47767U 21017AX  23096.91001048  .00018005  00000-0  12249-2 0  9999","RA_OF_ASC_NODE":"325.0685","COUNTRY_CODE":"US","OBJECT_NAME":"STARLINK-2185","SITE":"AFETR","APOAPSIS":"547.887","INCLINATION":"53.0532","MEAN_MOTION_DOT":"0.00018005","SEMIMAJOR_AXIS":"6925.380","ARG_OF_PERICENTER":"76.5996","NORAD_CAT_ID":"47767","CLASSIFICATION_TYPE":"U","BSTAR":"0.00122490000000","PERIAPSIS":"546.602","OBJECT_TYPE":"PAYLOAD","GP_ID":"229617322","ELEMENT_SET_NO":"999","OBJECT_ID":"2021-017AX","TIME_SYSTEM":"UTC","REV_AT_EPOCH":"11616"},{"TLE_LINE1":"1 47768U 21017AY  23096.95106270  .00013756  00000-0  94088-3 0  9997","MEAN_MOTION":"15.06387334","FILE":"3882049","REF_FRAME":"TEME","CENTER_NAME":"EARTH","MEAN_ANOMALY":"279.3344","MEAN_ELEMENT_THEORY":"SGP4","DECAY_DATE":null,"PERIOD":"95.593","RCS_SIZE":"LARGE","TLE_LINE2":"2 47768  53.0551 340.2787 0000606  80.7713 279.3344 15.06387334116608","ECCENTRICITY":"0.00006060","EPHEMERIS_TYPE":"0","MEAN_MOTION_DDOT":"0.0000000000000","LAUNCH_DATE":"2021-03-04","EPOCH":"2023-04-06T22:49:31.817280","REV_AT_EPOCH":"11660","OBJECT_ID":"2021-017AY","TIME_SYSTEM":"UTC","ELEMENT_SET_NO":"999","GP_ID":"229642978","OBJECT_TYPE":"PAYLOAD","PERIAPSIS":"546.833","BSTAR":"0.00094088000000","CLASSIFICATION_TYPE":"U","NORAD_CAT_ID":"47768","ARG_OF_PERICENTER":"80.7713","SEMIMAJOR_AXIS":"6925.387","MEAN_MOTION_DOT":"0.00013756","INCLINATION":"53.0551","APOAPSIS":"547.672","OBJECT_NAME":"STARLINK-2189","SITE":"AFETR","RA_OF_ASC_NODE":"340.2787","COUNTRY_CODE":"US"},{"ARG_OF_PERICENTER":"97.9947","BSTAR":"0.00053337000000","CLASSIFICATION_TYPE":"U","NORAD_CAT_ID":"47769","OBJECT_NAME":"STARLINK-2192","SITE":"AFETR","RA_OF_ASC_NODE":"306.6317","COUNTRY_CODE":"US","SEMIMAJOR_AXIS":"6925.358","MEAN_MOTION_DOT":"0.00007671","INCLINATION":"53.0530","APOAPSIS":"548.352","OBJECT_ID":"2021-017AZ","TIME_SYSTEM":"UTC","REV_AT_EPOCH":"11638","PERIAPSIS":"546.093","ELEMENT_SET_NO":"999","GP_ID":"229586894","OBJECT_TYPE":"PAYLOAD","ECCENTRICITY":"0.00016310","TLE_LINE2":"2 47769  53.0530 306.6317 0001631  97.9947 262.1227 15.06397045116384","MEAN_MOTION_DDOT":"0.0000000000000","EPHEMERIS_TYPE":"0","RCS_SIZE":"LARGE","EPOCH":"2023-04-06T13:28:49.052640","LAUNCH_DATE":"2021-03-04","MEAN_MOTION":"15.06397045","FILE":"3881710","TLE_LINE1":"1 47769U 21017AZ  23096.56167885  .00007671  00000-0  53337-3 0  9995","DECAY_DATE":null,"PERIOD":"95.592","REF_FRAME":"TEME","MEAN_ANOMALY":"262.1227","MEAN_ELEMENT_THEORY":"SGP4","CENTER_NAME":"EARTH"}];
